OBJECT A                
1 44879U 19093A   20211.81585298  .00000091  00000-0  18429-4 0  9994
2 44879  97.9576 287.5577 0013714 259.2501 100.7169 14.81415811 32977
OBJECT B                
1 44880U 19093B   20211.81461547  .00000119  00000-0  21991-4 0  9995
2 44880  97.9574 287.5649 0013881 259.5272 100.4374 14.81432737 32960
CAS-6 (TIANQIN 1)       
1 44881U 19093C   20211.81115382 -.00000005  00000-0  62615-5 0  9993
2 44881  97.9569 287.5739 0013638 258.8770 101.0908 14.81415847 32963
OBJECT D                
1 44882U 19093D   20211.73562577  .00000164  00000-0  27729-4 0  9998
2 44882  97.9618 287.6112 0014853 262.1021  97.8506 14.81520081 32954
CBERS 4A                
1 44883U 19093E   20211.79682596  .00000072  00000-0  15945-4 0  9994
2 44883  97.9580 287.6042 0001417  86.2122 273.9249 14.81518561 32977
OBJECT F                
1 44884U 19093F   20211.75485684  .00000151  00000-0  25888-4 0  9995
2 44884  97.9557 287.5866 0012370 267.8071  92.1721 14.81838799 32968
FLORIPASAT-1            
1 44885U 19093G   20211.72385751  .00000198  00000-0  31637-4 0  9997
2 44885  97.9568 287.6711 0013282 270.4456  89.5223 14.82052803 32963
OBJECT H                
1 44886U 19093H   20211.80578349  .00000138  00000-0  23928-4 0  9992
2 44886  97.9582 287.9195 0013809 276.9109  83.0533 14.82390542 32980
OBJECT J                
1 44887U 19093J   20211.73956383  .00000087  00000-0  17637-4 0  9996
2 44887  97.9583 287.8385 0013684 276.4638  83.5025 14.82374384 32971
CZ-4B R/B               
1 44888U 19093K   20211.82694155  .00000193  00000-0  13857-4 0  9991
2 44888  97.8638 295.2878 0123447 342.4924  17.2066 15.11105745 33632
OBJECT L                
1 44889U 19093L   20211.77502940  .00000070  00000-0  15962-4 0  9999
2 44889  97.9546 287.2194 0014254 249.0170 110.9519 14.80790960 32877
OBJECT M                
1 44890U 19093M   20211.79980045  .00000344  00000-0  45520-4 0  9996
2 44890  97.9081 287.6041 0047277 279.7552  79.8313 14.85614897 32978
OBJECT N                
1 44891U 19093N   20211.70296134  .00000230  00000-0  32554-4 0  9994
2 44891  98.0165 290.7104 0025558  25.2089 335.0356 14.86255927 32976
